[
    {
        "Altitude(m)": 570587.9878768923,
        "Argument of Periapsis(deg)": 0.013245982221427002,
        "Eccentricity": 0.0,
        "Inclination(deg)": 53.0,
        "Latitude(deg)": -49.93582364127006,
        "Longitude(deg)": 6.437336600358659,
        "Mean Anomaly(deg)": -107.08951426484484,
        "RAAN(deg)": 224.98028673705605,
        "Satellite Name": "Starlink Shell 1 1004",
        "Satellite Number": 1004,
        "Semi-Major Axis(m)": 6931778.249405717,
        "Time(s)": 380
    },
    {
        "Altitude(m)": 570676.6026699141,
        "Argument of Periapsis(deg)": 0.013594560700938237,
        "Eccentricity": 0.0,
        "Inclination(deg)": 53.0,
        "Latitude(deg)": -50.158882450909395,
        "Longitude(deg)": 7.302591005472527,
        "Mean Anomaly(deg)": -106.46268306128819,
        "RAAN(deg)": 224.97976796697856,
        "Satellite Name": "Starlink Shell 1 1004",
        "Satellite Number": 1004,
        "Semi-Major Axis(m)": 6931778.249405717,
        "Time(s)": 390
    },
    {
        "Altitude(m)": 570762.2023388242,
        "Argument of Periapsis(deg)": 0.013943139180449475,
        "Eccentricity": 0.0,
        "Inclination(deg)": 53.0,
        "Latitude(deg)": -50.37479284184417,
        "Longitude(deg)": 8.17616768199637,
        "Mean Anomaly(deg)": -105.83585185773131,
        "RAAN(deg)": 224.97924919690107,
        "Satellite Name": "Starlink Shell 1 1004",
        "Satellite Number": 1004,
        "Semi-Major Axis(m)": 6931778.249405717,
        "Time(s)": 400
    },
    {
        "Altitude(m)": 570844.7528225493,
        "Argument of Periapsis(deg)": 0.014291717659960712,
        "Eccentricity": 0.0,
        "Inclination(deg)": 53.0,
        "Latitude(deg)": -50.58343594935013,
        "Longitude(deg)": 9.057929465732084,
        "Mean Anomaly(deg)": -105.20902065417467,
        "RAAN(deg)": 224.9787304268236,
        "Satellite Name": "Starlink Shell 1 1004",
        "Satellite Number": 1004,
        "Semi-Major Axis(m)": 6931778.249405717,
        "Time(s)": 410
    },
    {
        "Altitude(m)": 570924.2212623858,
        "Argument of Periapsis(deg)": 0.014640296139471948,
        "Eccentricity": 0.0,
        "Inclination(deg)": 53.0,
        "Latitude(deg)": -50.78469444772728,
        "Longitude(deg)": 9.947723139871515,
        "Mean Anomaly(deg)": -104.5821894506179,
        "RAAN(deg)": 224.97821165674614,
        "Satellite Name": "Starlink Shell 1 1004",
        "Satellite Number": 1004,
        "Semi-Major Axis(m)": 6931778.249405717,
        "Time(s)": 420
    },
    {
        "Altitude(m)": 571000.5760162921,
        "Argument of Periapsis(deg)": 0.014988874618983185,
        "Eccentricity": 0.0,
        "Inclination(deg)": 53.0,
        "Latitude(deg)": -50.97845280958717,
        "Longitude(deg)": 10.845379688070063,
        "Mean Anomaly(deg)": -103.95535824706123,
        "RAAN(deg)": 224.97769288666865,
        "Satellite Name": "Starlink Shell 1 1004",
        "Satellite Number": 1004,
        "Semi-Major Axis(m)": 6931778.249405717,
        "Time(s)": 430
    },
    {
        "Altitude(m)": 571073.786672622,
        "Argument of Periapsis(deg)": 0.015337453098494424,
        "Eccentricity": 0.0,
        "Inclination(deg)": 53.0,
        "Latitude(deg)": -51.16459757179082,
        "Longitude(deg)": 11.750714603552241,
        "Mean Anomaly(deg)": -103.32852704350458,
        "RAAN(deg)": 224.9771741165912,
        "Satellite Name": "Starlink Shell 1 1004",
        "Satellite Number": 1004,
        "Semi-Major Axis(m)": 6931778.249405717,
        "Time(s)": 440
    },
    {
        "Altitude(m)": 571143.8240633518,
        "Argument of Periapsis(deg)": 0.01568603157800566,
        "Eccentricity": 0.0,
        "Inclination(deg)": 53.0,
        "Latitude(deg)": -51.34301760700442,
        "Longitude(deg)": 12.663526746234579,
        "Mean Anomaly(deg)": -102.70169583994783,
        "RAAN(deg)": 224.97665534651375,
        "Satellite Name": "Starlink Shell 1 1004",
        "Satellite Number": 1004,
        "Semi-Major Axis(m)": 6931778.249405717,
        "Time(s)": 450
    },
    {
        "Altitude(m)": 571210.6602767402,
        "Argument of Periapsis(deg)": 0.0160346100575169,
        "Eccentricity": 0.0,
        "Inclination(deg)": 53.0,
        "Latitude(deg)": -51.51360439971914,
        "Longitude(deg)": 13.583598778253634,
        "Mean Anomaly(deg)": -102.07486463639117,
        "RAAN(deg)": 224.97613657643623,
        "Satellite Name": "Starlink Shell 1 1004",
        "Satellite Number": 1004,
        "Semi-Major Axis(m)": 6931778.249405717,
        "Time(s)": 460
    },
    {
        "Altitude(m)": 571274.2686694354,
        "Argument of Periapsis(deg)": 0.016383188537028134,
        "Eccentricity": 0.0,
        "Inclination(deg)": 53.0,
        "Latitude(deg)": -51.6762523254792,
        "Longitude(deg)": 14.510697669374624,
        "Mean Anomaly(deg)": -101.44803343283439,
        "RAAN(deg)": 224.9756178063588,
        "Satellite Name": "Starlink Shell 1 1004",
        "Satellite Number": 1004,
        "Semi-Major Axis(m)": 6931778.249405717,
        "Time(s)": 470
    },
    {
        "Altitude(m)": 571334.6238780487,
        "Argument of Periapsis(deg)": 0.01673176701653937,
        "Eccentricity": 0.0,
        "Inclination(deg)": 53.0,
        "Latitude(deg)": -51.83085893195739,
        "Longitude(deg)": 15.444573763373237,
        "Mean Anomaly(deg)": -100.82120222927765,
        "RAAN(deg)": 224.97509903628128,
        "Satellite Name": "Starlink Shell 1 1004",
        "Satellite Number": 1004,
        "Semi-Major Axis(m)": 6931778.249405717,
        "Time(s)": 480
    },
    {
        "Altitude(m)": 571391.7018301488,
        "Argument of Periapsis(deg)": 0.017080345496050607,
        "Eccentricity": 0.0,
        "Inclination(deg)": 53.0,
        "Latitude(deg)": -51.97732522041244,
        "Longitude(deg)": 16.38496143465559,
        "Mean Anomaly(deg)": -100.19437102572098,
        "RAAN(deg)": 224.97458026620384,
        "Satellite Name": "Starlink Shell 1 1004",
        "Satellite Number": 1004,
        "Semi-Major Axis(m)": 6931778.249405717,
        "Time(s)": 490
    },
    {
        "Altitude(m)": 571445.4797546985,
        "Argument of Periapsis(deg)": 0.017428923975561842,
        "Eccentricity": 0.0,
        "Inclination(deg)": 53.0,
        "Latitude(deg)": -52.115555925982946,
        "Longitude(deg)": 17.33157982522196,
        "Mean Anomaly(deg)": -99.56753982216424,
        "RAAN(deg)": 224.97406149612635,
        "Satellite Name": "Starlink Shell 1 1004",
        "Satellite Number": 1004,
        "Semi-Major Axis(m)": 6931778.249405717,
        "Time(s)": 500
    },
    {
        "Altitude(m)": 571495.9361919395,
        "Argument of Periapsis(deg)": 0.01777750245507308,
        "Eccentricity": 0.0,
        "Inclination(deg)": 53.0,
        "Latitude(deg)": -52.24545979519724,
        "Longitude(deg)": 18.284132151470814,
        "Mean Anomaly(deg)": -98.94070861860749,
        "RAAN(deg)": 224.9735427260489,
        "Satellite Name": "Starlink Shell 1 1004",
        "Satellite Number": 1004,
        "Semi-Major Axis(m)": 6931778.249405717,
        "Time(s)": 510
    },
    {
        "Altitude(m)": 571543.0510026723,
        "Argument of Periapsis(deg)": 0.018126080934584315,
        "Eccentricity": 0.0,
        "Inclination(deg)": 53.0,
        "Latitude(deg)": -52.36694985901728,
        "Longitude(deg)": 19.242306608364437,
        "Mean Anomaly(deg)": -98.31387741505078,
        "RAAN(deg)": 224.9730239559714,
        "Satellite Name": "Starlink Shell 1 1004",
        "Satellite Number": 1004,
        "Semi-Major Axis(m)": 6931778.249405717,
        "Time(s)": 520
    },
    {
        "Altitude(m)": 571586.8053769879,
        "Argument of Periapsis(deg)": 0.018474659414095554,
        "Eccentricity": 0.0,
        "Inclination(deg)": 53.0,
        "Latitude(deg)": -52.47994369962438,
        "Longitude(deg)": 20.205777358489073,
        "Mean Anomaly(deg)": -97.68704621149405,
        "RAAN(deg)": 224.97250518589394,
        "Satellite Name": "Starlink Shell 1 1004",
        "Satellite Number": 1004,
        "Semi-Major Axis(m)": 6931778.249405717,
        "Time(s)": 530
    },
    {
        "Altitude(m)": 571627.1818424289,
        "Argument of Periapsis(deg)": 0.018823237893606792,
        "Eccentricity": 0.0,
        "Inclination(deg)": 53.0,
        "Latitude(deg)": -52.584363709350264,
        "Longitude(deg)": 21.174204094648683,
        "Mean Anomaly(deg)": -97.0602150079374,
        "RAAN(deg)": 224.97198641581647,
        "Satellite Name": "Starlink Shell 1 1004",
        "Satellite Number": 1004,
        "Semi-Major Axis(m)": 6931778.249405717,
        "Time(s)": 540
    },
    {
        "Altitude(m)": 571664.1642715477,
        "Argument of Periapsis(deg)": 0.019171816373118027,
        "Eccentricity": 0.0,
        "Inclination(deg)": 53.0,
        "Latitude(deg)": -52.680137339745784,
        "Longitude(deg)": 22.14723319911881,
        "Mean Anomaly(deg)": -96.43338380438061,
        "RAAN(deg)": 224.97146764573898,
        "Satellite Name": "Starlink Shell 1 1004",
        "Satellite Number": 1004,
        "Semi-Major Axis(m)": 6931778.249405717,
        "Time(s)": 550
    },
    {
        "Altitude(m)": 571697.7378888874,
        "Argument of Periapsis(deg)": 0.019520394852629266,
        "Eccentricity": 0.0,
        "Inclination(deg)": 53.0,
        "Latitude(deg)": -52.76719733920477,
        "Longitude(deg)": 23.12449898655762,
        "Mean Anomaly(deg)": -95.80655260082399,
        "RAAN(deg)": 224.97094887566152,
        "Satellite Name": "Starlink Shell 1 1004",
        "Satellite Number": 1004,
        "Semi-Major Axis(m)": 6931778.249405717,
        "Time(s)": 560
    }
]